{
  "norad_id": 66618,
  "name": "STARLINK-35970",
  "history": [
    {
      "epoch": "2026-03-28T07:45:02.895552Z",
      "apogee_km": 476.0512843002725,
      "perigee_km": 474.3638538004807,
      "latitude_deg": 3.458199988708996e-05,
      "longitude_deg": 111.0760110420484,
      "height_km": 476.06071173390507,
      "semi_major_axis_km": 6853.344569050376,
      "eccentricity": 0.00012311,
      "inclination_deg": 53.159,
      "raan_deg": 53.0831,
      "arg_perigee_deg": 86.951,
      "mean_anomaly_deg": 273.1632,
      "mean_motion_rev_day": 15.30202512
    },
    {
      "epoch": "2026-03-29T04:07:44.237856Z",
      "apogee_km": 476.0356414733178,
      "perigee_km": 474.3360174116151,
      "latitude_deg": 1.6458714211300206e-05,
      "longitude_deg": 160.6218368536361,
      "height_km": 476.09571387647986,
      "semi_major_axis_km": 6853.322829442466,
      "eccentricity": 0.000124,
      "inclination_deg": 53.1591,
      "raan_deg": 49.1381,
      "arg_perigee_deg": 90.7999,
      "mean_anomaly_deg": 269.3144,
      "mean_motion_rev_day": 15.30209793
    },
    {
      "epoch": "2026-03-30T03:38:32.292096Z",
      "apogee_km": 476.29084990795036,
      "perigee_km": 474.1129958650354,
      "latitude_deg": 1.6704349707583775e-05,
      "longitude_deg": 162.40555272665125,
      "height_km": 476.09171216793516,
      "semi_major_axis_km": 6853.338922886493,
      "eccentricity": 0.00015889,
      "inclination_deg": 53.1602,
      "raan_deg": 44.5877,
      "arg_perigee_deg": 89.5863,
      "mean_anomaly_deg": 270.532,
      "mean_motion_rev_day": 15.30204403
    },
    {
      "epoch": "2026-03-30T20:53:07.751904Z",
      "apogee_km": 475.9307230654231,
      "perigee_km": 474.3241808126004,
      "latitude_deg": -1.393253975146631e-05,
      "longitude_deg": -100.28767084281235,
      "height_km": 475.93537764371075,
      "semi_major_axis_km": 6853.264451939011,
      "eccentricity": 0.00011721,
      "inclination_deg": 53.1602,
      "raan_deg": 41.2504,
      "arg_perigee_deg": 83.5433,
      "mean_anomaly_deg": 276.5701,
      "mean_motion_rev_day": 15.30229345
    },
    {
      "epoch": "2026-03-31T20:23:57.774336Z",
      "apogee_km": 476.29444295507164,
      "perigee_km": 474.26857244419534,
      "latitude_deg": -2.940451148331519e-06,
      "longitude_deg": -98.51326946875417,
      "height_km": 475.913009535116,
      "semi_major_axis_km": 6853.418507699634,
      "eccentricity": 0.0001478,
      "inclination_deg": 53.1588,
      "raan_deg": 36.6989,
      "arg_perigee_deg": 74.7622,
      "mean_anomaly_deg": 285.3542,
      "mean_motion_rev_day": 15.30177749
    },
    {
      "epoch": "2026-04-01T13:38:32.136864Z",
      "apogee_km": 476.21632186138595,
      "perigee_km": 473.9506471692048,
      "latitude_deg": -8.478844120702477e-06,
      "longitude_deg": -1.2018897394280392,
      "height_km": 476.55687436345414,
      "semi_major_axis_km": 6853.2204845152955,
      "eccentricity": 0.0001653,
      "inclination_deg": 53.1625,
      "raan_deg": 33.3616,
      "arg_perigee_deg": 120.5172,
      "mean_anomaly_deg": 239.5992,
      "mean_motion_rev_day": 15.30244071
    },
    {
      "epoch": "2026-04-02T19:25:31.128384Z",
      "apogee_km": 476.52354055441083,
      "perigee_km": 473.6440912963908,
      "latitude_deg": 7.306554208970248e-06,
      "longitude_deg": -94.9349214148383,
      "height_km": 476.19451611523954,
      "semi_major_axis_km": 6853.2208159254005,
      "eccentricity": 0.00021008,
      "inclination_deg": 53.1629,
      "raan_deg": 27.5975,
      "arg_perigee_deg": 98.5261,
      "mean_anomaly_deg": 261.5978,
      "mean_motion_rev_day": 15.3024396
    },
    {
      "epoch": "2026-04-03T03:15:45.535680Z",
      "apogee_km": 475.4475145372944,
      "perigee_km": 474.4062600102616,
      "latitude_deg": 7.002681206873545e-05,
      "longitude_deg": 145.66862710671515,
      "height_km": 475.92977270368704,
      "semi_major_axis_km": 6853.063887273778,
      "eccentricity": 7.597e-05,
      "inclination_deg": 53.1626,
      "raan_deg": 26.0829,
      "arg_perigee_deg": 101.5008,
      "mean_anomaly_deg": 258.6079,
      "mean_motion_rev_day": 15.30296522
    },
    {
      "epoch": "2026-04-04T18:27:08.063712Z",
      "apogee_km": 475.9493816801523,
      "perigee_km": 474.24977900822614,
      "latitude_deg": 1.7810092742298972e-05,
      "longitude_deg": -91.36853870555129,
      "height_km": 475.974652632706,
      "semi_major_axis_km": 6853.236580344189,
      "eccentricity": 0.000124,
      "inclination_deg": 53.1605,
      "raan_deg": 18.4991,
      "arg_perigee_deg": 88.4416,
      "mean_anomaly_deg": 271.6727,
      "mean_motion_rev_day": 15.3023868
    },
    {
      "epoch": "2026-04-05T11:41:43.779264Z",
      "apogee_km": 476.0730791189635,
      "perigee_km": 474.3458987368231,
      "latitude_deg": -3.852886934969244e-05,
      "longitude_deg": 5.936548136174941,
      "height_km": 476.4193818730126,
      "semi_major_axis_km": 6853.346488927893,
      "eccentricity": 0.00012601,
      "inclination_deg": 53.1606,
      "raan_deg": 15.1612,
      "arg_perigee_deg": 111.1522,
      "mean_anomaly_deg": 248.9613,
      "mean_motion_rev_day": 15.30201869
    },
    {
      "epoch": "2026-04-06T01:48:11.985408Z",
      "apogee_km": 476.06337967284253,
      "perigee_km": 474.275352041991,
      "latitude_deg": 7.128022394556547e-06,
      "longitude_deg": 151.0102672497536,
      "height_km": 476.5481125572309,
      "semi_major_axis_km": 6853.3063658574165,
      "eccentricity": 0.00013045,
      "inclination_deg": 53.1598,
      "raan_deg": 12.4318,
      "arg_perigee_deg": 122.5086,
      "mean_anomaly_deg": 237.6041,
      "mean_motion_rev_day": 15.30215307
    },
    {
      "epoch": "2026-04-07T10:43:18.538176Z",
      "apogee_km": 476.27769929703936,
      "perigee_km": 474.0898451737103,
      "latitude_deg": 2.8765561338381403e-05,
      "longitude_deg": 9.506762347216972,
      "height_km": 476.0903524928971,
      "semi_major_axis_km": 6853.3207722353745,
      "eccentricity": 0.00015962,
      "inclination_deg": 53.1608,
      "raan_deg": 6.0575,
      "arg_perigee_deg": 90.4648,
      "mean_anomaly_deg": 269.6536,
      "mean_motion_rev_day": 15.30210482
    },
    {
      "epoch": "2026-04-08T10:14:06.776448Z",
      "apogee_km": 475.9459832283601,
      "perigee_km": 474.4655241267101,
      "latitude_deg": 1.5494205142795262e-06,
      "longitude_deg": 11.291185326546772,
      "height_km": 476.03831887504765,
      "semi_major_axis_km": 6853.342753677535,
      "eccentricity": 0.00010801,
      "inclination_deg": 53.1596,
      "raan_deg": 1.5086,
      "arg_perigee_deg": 84.9054,
      "mean_anomaly_deg": 275.207,
      "mean_motion_rev_day": 15.3020312
    },
    {
      "epoch": "2026-04-09T00:20:35.475072Z",
      "apogee_km": 475.98846793056236,
      "perigee_km": 474.4285094304296,
      "latitude_deg": 2.7792460266811895e-05,
      "longitude_deg": 156.359231650801,
      "height_km": 475.7284560823709,
      "semi_major_axis_km": 6853.345488680496,
      "eccentricity": 0.00011381,
      "inclination_deg": 53.1595,
      "raan_deg": 358.7756,
      "arg_perigee_deg": 60.9758,
      "mean_anomaly_deg": 299.1357,
      "mean_motion_rev_day": 15.30202204
    },
    {
      "epoch": "2026-04-09T23:51:23.340096Z",
      "apogee_km": 476.0806391841352,
      "perigee_km": 474.40197270187764,
      "latitude_deg": -3.3061997223307565e-06,
      "longitude_deg": 158.1483112838621,
      "height_km": 476.15227988568205,
      "semi_major_axis_km": 6853.378305943006,
      "eccentricity": 0.00012247,
      "inclination_deg": 53.1598,
      "raan_deg": 354.2298,
      "arg_perigee_deg": 90.878,
      "mean_anomaly_deg": 269.2361,
      "mean_motion_rev_day": 15.30191213
    },
    {
      "epoch": "2026-04-11T02:30:17.459136Z",
      "apogee_km": 476.0318549533831,
      "perigee_km": 474.4451614557238,
      "latitude_deg": 7.110222018361343e-06,
      "longitude_deg": 112.16891095939829,
      "height_km": 476.2026793115218,
      "semi_major_axis_km": 6853.375508204554,
      "eccentricity": 0.00011576,
      "inclination_deg": 53.159,
      "raan_deg": 349.0703,
      "arg_perigee_deg": 94.7757,
      "mean_anomaly_deg": 265.3376,
      "mean_motion_rev_day": 15.3019215
    },
    {
      "epoch": "2026-04-12T22:23:47.427648Z",
      "apogee_km": 476.3723912815658,
      "perigee_km": 474.04362464786027,
      "latitude_deg": 6.914853684534403e-05,
      "longitude_deg": 163.49582017111462,
      "height_km": 476.1687963962307,
      "semi_major_axis_km": 6853.345007964713,
      "eccentricity": 0.0001699,
      "inclination_deg": 53.16,
      "raan_deg": 340.5746,
      "arg_perigee_deg": 93.1174,
      "mean_anomaly_deg": 267.0022,
      "mean_motion_rev_day": 15.30202365
    },
    {
      "epoch": "2026-04-14T21:25:22.990944Z",
      "apogee_km": 476.3855911756209,
      "perigee_km": 473.997891442149,
      "latitude_deg": 2.7726455845846843e-05,
      "longitude_deg": 167.06389921786862,
      "height_km": 476.3209361247978,
      "semi_major_axis_km": 6853.328741308885,
      "eccentricity": 0.0001742,
      "inclination_deg": 53.1629,
      "raan_deg": 331.4722,
      "arg_perigee_deg": 101.1776,
      "mean_anomaly_deg": 258.9421,
      "mean_motion_rev_day": 15.30207813
    },
    {
      "epoch": "2026-04-15T20:56:10.888800Z",
      "apogee_km": 476.3360368251906,
      "perigee_km": 474.0566181604663,
      "latitude_deg": 5.1310555816261324e-05,
      "longitude_deg": 168.84738717540597,
      "height_km": 476.32681191720076,
      "semi_major_axis_km": 6853.333327492828,
      "eccentricity": 0.0001663,
      "inclination_deg": 53.162,
      "raan_deg": 326.9209,
      "arg_perigee_deg": 101.7814,
      "mean_anomaly_deg": 258.3374,
      "mean_motion_rev_day": 15.30206277
    }
  ]
}